start=new Date('2023-05-20T00:00:00.000Z').valueOf();
sats=[{"EPOCH":"2023-05-19T21:14:55.652640","LAUNCH_DATE":"2021-09-14","SEMIMAJOR_AXIS":"6950.194","TLE_LINE1":"1 49145U 21082R   23139.88536635 -.00000081  00000-0  10488-5 0  9994","GP_ID":"232159872","EPHEMERIS_TYPE":"0","CENTER_NAME":"EARTH","ARG_OF_PERICENTER":"268.8655","COUNTRY_CODE":"US","MEAN_MOTION_DDOT":"0.0000000000000","MEAN_MOTION":"14.98329547","RA_OF_ASC_NODE":"318.3357","PERIOD":"96.107","REF_FRAME":"TEME","RCS_SIZE":"LARGE","ECCENTRICITY":"0.00030410","APOAPSIS":"574.173","MEAN_ANOMALY":"91.2156","REV_AT_EPOCH":"9345","FILE":"3912278","TLE_LINE2":"2 49145  69.9992 318.3357 0003041 268.8655  91.2156 14.98329547 93454","CLASSIFICATION_TYPE":"U","SITE":"AFWTR","MEAN_MOTION_DOT":"-0.00000081","PERIAPSIS":"569.946","TIME_SYSTEM":"UTC","OBJECT_ID":"2021-082R","OBJECT_NAME":"STARLINK-3119","DECAY_DATE":null,"MEAN_ELEMENT_THEORY":"SGP4","OBJECT_TYPE":"PAYLOAD","BSTAR":"0.00000104880000","NORAD_CAT_ID":"49145","INCLINATION":"69.9992","ELEMENT_SET_NO":"999"},{"TLE_LINE2":"2 49146  69.9997 338.3035 0003177 269.7261  90.3534 14.98334498 94124","FILE":"3912278","ECCENTRICITY":"0.00031770","MEAN_ANOMALY":"90.3534","APOAPSIS":"574.252","REV_AT_EPOCH":"9412","REF_FRAME":"TEME","RCS_SIZE":"LARGE","RA_OF_ASC_NODE":"338.3035","PERIOD":"96.107","COUNTRY_CODE":"US","MEAN_MOTION_DDOT":"0.0000000000000","MEAN_MOTION":"14.98334498","TLE_LINE1":"1 49146U 21082S   23139.90645700  .00000526  00000-0  51882-4 0  9997","GP_ID":"232160594","EPHEMERIS_TYPE":"0","CENTER_NAME":"EARTH","ARG_OF_PERICENTER":"269.7261","SEMIMAJOR_AXIS":"6950.179","LAUNCH_DATE":"2021-09-14","EPOCH":"2023-05-19T21:45:17.884800","ELEMENT_SET_NO":"999","INCLINATION":"69.9997","NORAD_CAT_ID":"49146","OBJECT_TYPE":"PAYLOAD","DECAY_DATE":null,"MEAN_ELEMENT_THEORY":"SGP4","BSTAR":"0.00005188200000","OBJECT_NAME":"STARLINK-3116","OBJECT_ID":"2021-082S","MEAN_MOTION_DOT":"0.00000526","PERIAPSIS":"569.836","TIME_SYSTEM":"UTC","SITE":"AFWTR","CLASSIFICATION_TYPE":"U"},{"MEAN_ANOMALY":"90.6750","APOAPSIS":"574.245","REV_AT_EPOCH":"9346","ECCENTRICITY":"0.00031550","RCS_SIZE":"LARGE","REF_FRAME":"TEME","TLE_LINE2":"2 49147  69.9995 318.3229 0003155 269.4048  90.6750 14.98331680 93461","FILE":"3912278","ARG_OF_PERICENTER":"269.4048","CENTER_NAME":"EARTH","TLE_LINE1":"1 49147U 21082T   23139.89788292 -.00000196  00000-0 -86555-5 0  9991","EPHEMERIS_TYPE":"0","GP_ID":"232159370","EPOCH":"2023-05-19T21:32:57.084288","LAUNCH_DATE":"2021-09-14","SEMIMAJOR_AXIS":"6950.188","RA_OF_ASC_NODE":"318.3229","PERIOD":"96.107","MEAN_MOTION":"14.98331680","COUNTRY_CODE":"US","MEAN_MOTION_DDOT":"0.0000000000000","NORAD_CAT_ID":"49147","BSTAR":"-0.00000865550000","DECAY_DATE":null,"MEAN_ELEMENT_THEORY":"SGP4","OBJECT_TYPE":"PAYLOAD","ELEMENT_SET_NO":"999","INCLINATION":"69.9995","SITE":"AFWTR","CLASSIFICATION_TYPE":"U","OBJECT_NAME":"STARLINK-3071","OBJECT_ID":"2021-082T","PERIAPSIS":"569.860","TIME_SYSTEM":"UTC","MEAN_MOTION_DOT":"-0.00000196"},{"FILE":"3912278","TLE_LINE2":"2 49148  69.9991 338.3052 0003234 269.1424  90.9365 14.98332697 92965","REF_FRAME":"TEME","RCS_SIZE":"LARGE","ECCENTRICITY":"0.00032340","REV_AT_EPOCH":"9296","APOAPSIS":"574.297","MEAN_ANOMALY":"90.9365","MEAN_MOTION_DDOT":"0.0000000000000","COUNTRY_CODE":"US","MEAN_MOTION":"14.98332697","PERIOD":"96.107","RA_OF_ASC_NODE":"338.3052","LAUNCH_DATE":"2021-09-14","SEMIMAJOR_AXIS":"6950.185","EPOCH":"2023-05-19T21:33:16.973568","GP_ID":"232159121","EPHEMERIS_TYPE":"0","TLE_LINE1":"1 49148U 21082U   23139.89811312  .00001128  00000-0  10233-3 0  9994","ARG_OF_PERICENTER":"269.1424","CENTER_NAME":"EARTH","INCLINATION":"69.9991","ELEMENT_SET_NO":"999","DECAY_DATE":null,"OBJECT_TYPE":"PAYLOAD","MEAN_ELEMENT_THEORY":"SGP4","BSTAR":"0.00010233000000","NORAD_CAT_ID":"49148","MEAN_MOTION_DOT":"0.00001128","TIME_SYSTEM":"UTC","PERIAPSIS":"569.802","OBJECT_ID":"2021-082U","OBJECT_NAME":"STARLINK-3048","CLASSIFICATION_TYPE":"U","SITE":"AFWTR"},{"ECCENTRICITY":"0.00032190","REV_AT_EPOCH":"9366","MEAN_ANOMALY":"90.4677","APOAPSIS":"574.293","REF_FRAME":"TEME","RCS_SIZE":"LARGE","TLE_LINE2":"2 49149  70.0000 358.3973 0003219 269.6113  90.4677 14.98330704 93663","FILE":"3912278","EPHEMERIS_TYPE":"0","GP_ID":"232160372","TLE_LINE1":"1 49149U 21082V   23139.86496551  .00000167  00000-0  21783-4 0  9991","CENTER_NAME":"EARTH","ARG_OF_PERICENTER":"269.6113","EPOCH":"2023-05-19T20:45:33.020064","LAUNCH_DATE":"2021-09-14","SEMIMAJOR_AXIS":"6950.191","PERIOD":"96.107","RA_OF_ASC_NODE":"358.3973","MEAN_MOTION_DDOT":"0.0000000000000","COUNTRY_CODE":"US","MEAN_MOTION":"14.98330704","NORAD_CAT_ID":"49149","MEAN_ELEMENT_THEORY":"SGP4","DECAY_DATE":null,"OBJECT_TYPE":"PAYLOAD","BSTAR":"0.00002178300000","ELEMENT_SET_NO":"999","INCLINATION":"70.0000","SITE":"AFWTR","CLASSIFICATION_TYPE":"U","OBJECT_ID":"2021-082V","OBJECT_NAME":"STARLINK-3053","MEAN_MOTION_DOT":"0.00000167","TIME_SYSTEM":"UTC","PERIAPSIS":"569.818"},{"CLASSIFICATION_TYPE":"U","SITE":"AFWTR","PERIAPSIS":"569.956","TIME_SYSTEM":"UTC","MEAN_MOTION_DOT":"-0.00000032","OBJECT_NAME":"STARLINK-3104","OBJECT_ID":"2021-082W","BSTAR":"0.00000511230000","DECAY_DATE":null,"OBJECT_TYPE":"PAYLOAD","MEAN_ELEMENT_THEORY":"SGP4","NORAD_CAT_ID":"49150","INCLINATION":"70.0003","ELEMENT_SET_NO":"999","LAUNCH_DATE":"2021-09-14","SEMIMAJOR_AXIS":"6950.190","EPOCH":"2023-05-19T20:39:32.754528","CENTER_NAME":"EARTH","ARG_OF_PERICENTER":"266.5243","TLE_LINE1":"1 49150U 21082W   23139.86079577 -.00000032  00000-0  51123-5 0  9992","EPHEMERIS_TYPE":"0","GP_ID":"232160095","MEAN_MOTION":"14.98331007","COUNTRY_CODE":"US","MEAN_MOTION_DDOT":"0.0000000000000","RA_OF_ASC_NODE":"358.4111","PERIOD":"96.107","RCS_SIZE":"LARGE","REF_FRAME":"TEME","MEAN_ANOMALY":"93.5570","APOAPSIS":"574.154","REV_AT_EPOCH":"9366","ECCENTRICITY":"0.00030200","FILE":"3912278","TLE_LINE2":"2 49150  70.0003 358.4111 0003020 266.5243  93.5570 14.98331007 93666"},{"OBJECT_NAME":"STARLINK-3102","OBJECT_ID":"2021-082X","MEAN_MOTION_DOT":"-0.00000546","PERIAPSIS":"569.816","TIME_SYSTEM":"UTC","SITE":"AFWTR","CLASSIFICATION_TYPE":"U","ELEMENT_SET_NO":"999","INCLINATION":"69.9987","NORAD_CAT_ID":"49151","DECAY_DATE":null,"OBJECT_TYPE":"PAYLOAD","MEAN_ELEMENT_THEORY":"SGP4","BSTAR":"-0.00003798600000","RA_OF_ASC_NODE":"318.3653","PERIOD":"96.107","COUNTRY_CODE":"US","MEAN_MOTION_DDOT":"0.0000000000000","MEAN_MOTION":"14.98336032","TLE_LINE1":"1 49151U 21082X   23139.87702193 -.00000546  00000-0 -37986-4 0  9992","GP_ID":"232158871","EPHEMERIS_TYPE":"0","CENTER_NAME":"EARTH","ARG_OF_PERICENTER":"268.9314","EPOCH":"2023-05-19T21:02:54.694752","LAUNCH_DATE":"2021-09-14","SEMIMAJOR_AXIS":"6950.174","TLE_LINE2":"2 49151  69.9987 318.3653 0003199 268.9314  91.1478 14.98336032 94657","FILE":"3912278","ECCENTRICITY":"0.00031990","APOAPSIS":"574.263","MEAN_ANOMALY":"91.1478","REV_AT_EPOCH":"9465","REF_FRAME":"TEME","RCS_SIZE":"LARGE"},{"NORAD_CAT_ID":"49152","DECAY_DATE":null,"OBJECT_TYPE":"PAYLOAD","MEAN_ELEMENT_THEORY":"SGP4","BSTAR":"0.00007654900000","ELEMENT_SET_NO":"999","INCLINATION":"69.9983","SITE":"AFWTR","CLASSIFICATION_TYPE":"U","OBJECT_NAME":"STARLINK-3081","OBJECT_ID":"2021-082Y","MEAN_MOTION_DOT":"0.00000821","PERIAPSIS":"569.864","TIME_SYSTEM":"UTC","ECCENTRICITY":"0.00031360","MEAN_ANOMALY":"90.2808","APOAPSIS":"574.223","REV_AT_EPOCH":"9457","REF_FRAME":"TEME","RCS_SIZE":"LARGE","TLE_LINE2":"2 49152  69.9983 318.4209 0003136 269.7991  90.2808 14.98334677 94574","FILE":"3912278","TLE_LINE1":"1 49152U 21082Y   23139.85198077  .00000821  00000-0  76549-4 0  9993","EPHEMERIS_TYPE":"0","GP_ID":"232159621","CENTER_NAME":"EARTH","ARG_OF_PERICENTER":"269.7991","LAUNCH_DATE":"2021-09-14","SEMIMAJOR_AXIS":"6950.178","EPOCH":"2023-05-19T20:26:51.138528","RA_OF_ASC_NODE":"318.4209","PERIOD":"96.107","COUNTRY_CODE":"US","MEAN_MOTION_DDOT":"0.0000000000000","MEAN_MOTION":"14.98334677"},{"RCS_SIZE":"LARGE","REF_FRAME":"TEME","REV_AT_EPOCH":"9466","MEAN_ANOMALY":"91.9074","APOAPSIS":"574.247","ECCENTRICITY":"0.00031590","FILE":"3912278","TLE_LINE2":"2 49153  69.9982 318.3933 0003159 268.1723  91.9074 14.98332140 94664","EPOCH":"2023-05-19T20:50:53.624544","LAUNCH_DATE":"2021-09-14","SEMIMAJOR_AXIS":"6950.186","CENTER_NAME":"EARTH","ARG_OF_PERICENTER":"268.1723","EPHEMERIS_TYPE":"0","GP_ID":"232159873","TLE_LINE1":"1 49153U 21082Z   23139.86867621 -.00000137  00000-0 -36941-5 0  9998","MEAN_MOTION":"14.98332140","MEAN_MOTION_DDOT":"0.0000000000000","COUNTRY_CODE":"US","PERIOD":"96.107","RA_OF_ASC_NODE":"318.3933","BSTAR":"-0.00000369410000","DECAY_DATE":null,"OBJECT_TYPE":"PAYLOAD","MEAN_ELEMENT_THEORY":"SGP4","NORAD_CAT_ID":"49153","INCLINATION":"69.9982","ELEMENT_SET_NO":"999","CLASSIFICATION_TYPE":"U","SITE":"AFWTR","TIME_SYSTEM":"UTC","PERIAPSIS":"569.856","MEAN_MOTION_DOT":"-0.00000137","OBJECT_ID":"2021-082Z","OBJECT_NAME":"STARLINK-3072"},{"INCLINATION":"69.9990","ELEMENT_SET_NO":"999","DECAY_DATE":null,"OBJECT_TYPE":"PAYLOAD","MEAN_ELEMENT_THEORY":"SGP4","BSTAR":"0.00001212900000","NORAD_CAT_ID":"49154","MEAN_MOTION_DOT":"0.00000052","TIME_SYSTEM":"UTC","PERIAPSIS":"569.845","OBJECT_NAME":"STARLINK-3068","OBJECT_ID":"2021-082AA","CLASSIFICATION_TYPE":"U","SITE":"AFWTR","FILE":"3912278","TLE_LINE2":"2 49154  69.9990 338.3195 0003184 269.4417  90.6377 14.98330120 94048","REF_FRAME":"TEME","RCS_SIZE":"LARGE","ECCENTRICITY":"0.00031840","REV_AT_EPOCH":"9404","MEAN_ANOMALY":"90.6377","APOAPSIS":"574.270","MEAN_MOTION_DDOT":"0.0000000000000","COUNTRY_CODE":"US","MEAN_MOTION":"14.98330120","PERIOD":"96.107","RA_OF_ASC_NODE":"338.3195","LAUNCH_DATE":"2021-09-14","SEMIMAJOR_AXIS":"6950.193","EPOCH":"2023-05-19T21:27:16.676064","EPHEMERIS_TYPE":"0","GP_ID":"232160595","TLE_LINE1":"1 49154U 21082AA  23139.89394301  .00000052  00000-0  12129-4 0  9997","CENTER_NAME":"EARTH","ARG_OF_PERICENTER":"269.4417"}];
